ORBCOMM-X [-]           
1 21576U 91050C   24074.11651617  .00000415  00000+0  13854-3 0  9994
2 21576  98.3991 142.8454 0004689 127.2655 232.8962 14.42396745715779
ORBCOMM FM01 [-]        
1 23545U 95017A   24074.50314355  .00004515  00000+0  62215-3 0  9997
2 23545  69.9665 130.1885 0008826 290.7700  69.2503 14.78860425544640
ORBCOMM FM02 [-]        
1 23546U 95017B   24074.51612431  .00006617  00000+0  91467-3 0  9991
2 23546  69.9692 149.4770 0010622 287.1277  72.8708 14.78467629544245
ORBCOMM FM08 [-]        
1 25112U 97084A   24074.32237852  .00002304  00000+0  73649-3 0  9998
2 25112  45.0154  49.0860 0005986  75.3887 284.7627 14.42146618375070
ORBCOMM FM10 [-]        
1 25113U 97084B   24074.32603612  .00002221  00000+0  71296-3 0  9994
2 25113  45.0166  50.8818 0004658  35.3439 324.7719 14.42069347375060
ORBCOMM FM11 [+]        
1 25114U 97084C   24074.20148199  .00001911  00000+0  62097-3 0  9990
2 25114  45.0157  51.4998 0005391  38.0755 322.0475 14.41952379375002
ORBCOMM FM12 [-]        
1 25115U 97084D   24073.67492578  .00001967  00000+0  63819-3 0  9998
2 25115  45.0157  53.6881 0004437  31.5864 328.5251 14.41920835374720
ORBCOMM FM09 [-]        
1 25116U 97084E   24074.23919001  .00002060  00000+0  66683-3 0  9994
2 25116  45.0161  51.6668 0005937  24.8212 335.2923 14.41889980375014
